satname,norad_id,inclination_deg,eccentricity,mean_motion_rev_per_day,perigee_km,apogee_km,l1,l2
STARLINK-1392,45677,53.1571,0.0001647,15.29378866,476.53877336790174,478.7970755100123,1 45677U 20035W   26082.05378669  .00002944  00000+0  11424-3 0  9994,2 45677  53.1571   2.7609 0001647  88.1630 271.9559 15.29378866320807
STARLINK-1394,45679,53.0494,0.000361,15.52122009,408.0808090346645,412.98222770492794,1 45679U 20035Y   26082.40562407  .00048649  00000+0  79387-3 0  9994,2 45679  53.0494 330.6394 0003610 177.4867 182.6161 15.52122009321284
STARLINK-1402,45685,53.0476,0.0001876,15.46880287,424.5823884534384,427.13524768437765,1 45685U 20035AE  26082.35985822  .00048786  00000+0  95717-3 0  9992,2 45685  53.0476 318.1900 0001876 235.5107 124.5722 15.46880287321460
STARLINK-1404,45686,53.1607,0.0002097,15.31303773,470.4849247276352,473.3578392130339,1 45686U 20035AF  26082.14646521  .00035910  00000+0  11778-2 0  9999,2 45686  53.1607 347.1510 0002097 121.6125 238.5081 15.31303773321039
STARLINK-1413,45689,53.1605,0.0001488,15.30184698,474.2409732273545,476.28054440037704,1 45689U 20035AJ  26082.15702619 -.00002246  00000+0 -63739-4 0  9998,2 45689  53.1605 347.0255 0001488  90.8452 269.2719 15.30184698320959
STARLINK-1417,45693,53.052,0.0001628,15.13305075,525.0049948816531,527.25302389431,1 45693U 20035AN  26082.47009236  .00016486  00000+0  92981-3 0  9992,2 45693  53.0520 351.8117 0001628 269.2766  90.8039 15.13305075320986
STARLINK-1420,45695,53.0527,0.0004378,15.56178738,395.7614348343068,401.6952581316873,1 45695U 20035AQ  26082.36743266  .00057136  00000+0  80233-3 0  9994,2 45695  53.0527 316.2907 0004378 168.7149 191.3961 15.56178738321488
STARLINK-1422,45696,53.1601,0.0001386,15.30180712,474.3227779366325,476.2225430945282,1 45696U 20035AR  26082.42566281 -.00002024  00000+0 -56265-4 0  9999,2 45696  53.1601 345.7811 0001386  90.5988 269.5171 15.30180712321076
STARLINK-1351,45697,53.0507,0.0004476,15.54797445,399.70637446375076,405.77661689308115,1 45697U 20035AS  26082.35586773  .00060864  00000+0  89831-3 0  9998,2 45697  53.0507 315.6829 0004476 199.4078 160.6763 15.54797445321495
STARLINK-1398,45699,53.0273,0.0008909,16.13611573,231.06089549271928,242.84766513598242,1 45699U 20035AU  26082.85769027  .01255254  10983-2  10271-2 0  9995,2 45699  53.0273 225.6430 0008909 310.2909  49.7346 16.13611573322797
STARLINK-1400,45700,53.0495,0.0007781,15.52721748,403.5024203154444,414.06422572212614,1 45700U 20035AV  26082.14903539  .00044004  00000+0  70328-3 0  9992,2 45700  53.0495 318.2056 0007781 147.9945 212.1539 15.52721748321439
STARLINK-1403,45701,53.1559,0.0001954,15.29354551,476.40095210523396,479.0802290676347,1 45701U 20035AW  26082.38834619 -.00000349  00000+0  25634-6 0  9999,2 45701  53.1559 332.9680 0001954 102.8430 257.2789 15.29354551321247
STARLINK-1407,45703,53.0319,0.0006862,15.62974617,374.43322528322005,383.7068161984853,1 45703U 20035AY  26082.45905662  .00076291  00000+0  82327-3 0  9993,2 45703  53.0319 248.5122 0006862 159.9144 200.2141 15.62974617322444
STARLINK-1411,45706,53.0425,0.0003594,15.64889954,371.12871046767214,375.98182687039116,1 45706U 20035BB  26082.24492517  .00114426  00000+0  11380-2 0  9996,2 45706  53.0425 275.0522 0003594 196.5724 163.5173 15.64889954322047
STARLINK-1423,45710,53.0498,0.0007371,15.5527765,396.3484984936367,406.34281182387167,1 45710U 20035BF  26082.35279287  .00046475  00000+0  67639-3 0  9997,2 45710  53.0498 316.0347 0007371 164.2459 195.8782 15.55277650321471
STARLINK-1433,45711,53.0494,0.0007262,15.57327198,390.4772378736743,400.3151174609184,1 45711U 20035BG  26082.42428204  .00052000  00000+0  70031-3 0  9992,2 45711  53.0494 314.5340 0007262 156.7338 203.4003 15.57327198321506
STARLINK-1434,45712,53.0554,0.0005003,15.27919849,478.5995121232154,485.4637968789084,1 45712U 20035BH  26082.37500536  .00025709  00000+0  94020-3 0  9996,2 45712  53.0554 316.5819 0005003 137.6317 222.5069 15.27919849321481
STARLINK-1465,45731,53.0493,0.0005081,15.52089164,407.1779205243438,414.07666279752993,1 45731U 20038B   26082.49764034  .00040642  00000+0  66576-3 0  9996,2 45731  53.0493 156.7937 0005081 341.9505  18.1323 15.52089164318523
STARLINK-1471,45735,53.0459,0.0001471,15.49619984,416.83721343834804,418.8365889600809,1 45735U 20038F   26082.45141800  .00030028  00000+0  53991-3 0  9990,2 45735  53.0459  76.0548 0001471   3.1688 356.9328 15.49619984319668
STARLINK-1480,45741,53.0536,8.81e-05,15.49093118,418.7788834597741,419.97660555775565,1 45741U 20038M   26079.31850691  .00173634  00000+0  30841-2 0  9992,2 45741  53.0536 166.3993 0000881 269.3316  90.7591 15.49093118318126
STARLINK-1500,45744,53.0345,0.000263,15.35526998,457.55735299840217,461.1538741131317,1 45744U 20038Q   26082.41411056  .00026652  00000+0  76905-3 0  9997,2 45744  53.0345 128.3334 0002630 339.1948  20.8946 15.35526998318923
STARLINK-1504,45746,53.0226,8.71e-05,15.54052975,404.3161089312016,405.49771518068155,1 45746U 20038S   26082.26003130  .00039718  00000+0  60661-3 0  9991,2 45746  53.0226  76.6708 0000871  37.2823 322.8247 15.54052975319623
STARLINK-1506,45747,53.0766,0.0002731,15.26518256,484.35552344052576,488.10484079539947,1 45747U 20038T   26082.54146858  .00007594  00000+0  29973-3 0  9996,2 45747  53.0766 138.2742 0002731 315.2441  44.8337 15.26518256318806
STARLINK-1464,45751,53.0505,0.0003666,15.45211435,428.2607425861488,433.25302358122553,1 45751U 20038X   26082.54200625  .00018830  00000+0  39809-3 0  9998,2 45751  53.0505 138.6789 0003666 342.0212  18.0663 15.45211435318792
STARLINK-1477,45754,53.0487,0.0002363,15.1515707,518.8716018140058,522.1318984873278,1 45754U 20038AA  26082.35656517  .00015231  00000+0  81700-3 0  9994,2 45754  53.0487 150.8021 0002363  25.4731 334.6378 15.15157070318601
STARLINK-1478,45755,53.0486,0.0004084,15.57431747,392.326852978581,397.8592272753567,1 45755U 20038AB  26082.50330762  .00029309  00000+0  39750-3 0  9992,2 45755  53.0486 130.9634 0004084 334.6231  25.4579 15.57431747318882
STARLINK-1493,45759,53.0508,0.000407,15.52431446,406.86677065137155,412.39201249411235,1 45759U 20038AF  26082.49320625  .00037600  00000+0  60931-3 0  9999,2 45759  53.0508 138.1234 0004070  44.2367 315.8967 15.52431446318783
STARLINK-1494,45760,53.0472,0.000696,15.76632176,335.31482543671154,344.6664591147601,1 45760U 20038AG  26082.58335647  .00068593  00000+0  42091-3 0  9993,2 45760  53.0472  82.3982 0006960  49.8144 312.7314 15.76632176  5929
STARLINK-1502,45764,53.0494,0.0005286,15.49156536,415.59916124829033,422.78529770969544,1 45764U 20038AL  26082.43599215  .00042728  00000+0  77586-3 0  9993,2 45764  53.0494 140.2566 0005286  33.6299 326.5044 15.49156536318764
STARLINK-1470,45772,53.0473,0.0002911,15.29044835,476.67033970217835,480.6623706155524,1 45772U 20038AU  26082.46975941  .00021801  00000+0  77284-3 0  9993,2 45772  53.0473 110.2960 0002911  40.3932 319.7282 15.29044835319187
STARLINK-1482,45773,53.1585,0.0001688,15.31024479,471.5979980699076,473.9108590161841,1 45773U 20038AV  26082.39399500  .00029725  00000+0  98629-3 0  9996,2 45773  53.1585 127.3298 0001688  57.3588 302.7575 15.31024479318946
STARLINK-1496,45780,53.0503,0.0002047,15.50337374,414.34955849463404,417.13097184699564,1 45780U 20038BC  26082.51021796  .00038092  00000+0  66503-3 0  9990,2 45780  53.0503 111.5644 0002047 304.5589  55.5226 15.50337374319153
STARLINK-1513,45786,53.1601,0.0001248,15.30198935,474.3629505840863,476.07354805431623,1 45786U 20038BJ  26082.53722172 -.00000455  00000+0 -32256-5 0  9998,2 45786  53.1601 126.8331 0001248  89.3927 270.7217 15.30198935318962
STARLINK-1522,46027,53.0658,0.000245,15.09624663,535.6517336552288,539.0403203384585,1 46027U 20055A   26082.25602766  .00016483  00000+0  10289-2 0  9996,2 46027  53.0658  65.3114 0002450  83.9716 276.1553 15.09624663310930
STARLINK-1523,46028,53.1561,0.0001546,15.29333543,476.743446828199,478.863303592213,1 46028U 20055B   26082.23516223  .00010557  00000+0  37791-3 0  9991,2 46028  53.1561  63.7544 0001546  96.0356 264.0820 15.29333543310977
STARLINK-1526,46029,53.1589,0.0001504,15.29353677,476.7120782164902,478.77432698143275,1 46029U 20055C   26082.22433608 -.00000432  00000+0 -26216-5 0  9991,2 46029  53.1589  63.7690 0001504  97.7599 262.3572 15.29353677310965
STARLINK-1555,46032,53.1607,0.000178,15.30166529,474.0950951561372,476.53492407156045,1 46032U 20055F   26082.58335647 -.00026687  00000+0 -89302-3 0  9991,2 46032  53.1607  62.1647 0001780  73.7315 149.9037 15.30166529  5788
STARLINK-1556,46033,53.1568,0.0001982,15.29370012,476.3355588949753,479.0532104558615,1 46033U 20055G   26082.25276066  .00008376  00000+0  30213-3 0  9995,2 46033  53.1568  63.5926 0001982  82.3749 277.7477 15.29370012310948
STARLINK-1557,46034,53.1568,0.0001998,15.29358031,476.3603881135259,479.09999264280214,1 46034U 20055H   26082.24653363  .00001139  00000+0  51824-4 0  9996,2 46034  53.1568  63.5248 0001998  92.3779 267.7450 15.29358031310944
STARLINK-1558,46035,53.1573,0.0001497,15.29350593,476.72609273091894,478.7787460230802,1 46035U 20055J   26081.94536256 -.00004032  00000+0 -12749-3 0  9993,2 46035  53.1573  65.1030 0001497  90.5902 269.5270 15.29350593310923
STARLINK-1560,46036,53.156,0.0001666,15.2933953,476.64328559724163,478.927678968339,1 46036U 20055K   26082.24329876 -.00004453  00000+0 -14215-3 0  9993,2 46036  53.1560  63.5786 0001666 100.0956 260.0232 15.29339530310971
STARLINK-1567,46038,53.1098,0.0001159,15.45284235,429.75390585296464,431.33215788435064,1 46038U 20055M   26082.58335647  .01023362  00000+0  19500-1 0  9994,2 46038  53.1098  61.6141 0001159  94.5728  66.3107 15.45284235  5680
STARLINK-1569,46039,53.1634,0.0001746,15.30190888,474.0456763222346,476.43887636553427,1 46039U 20055N   26082.21307886 -.00000188  00000+0  57772-5 0  9997,2 46039  53.1634  63.8874 0001746  91.0743 269.0458 15.30190888310959
